<gpx xmlns:ns3="http://www.garmin.com/xmlschemas/TrackPointExtension/v1" xmlns="http://www.topografix.com/GPX/1/1" xmlns:xsi="http://www.w3.org/2001/XMLSchema-instance" xmlns:ns2="http://www.garmin.com/xmlschemas/GpxExtensions/v3" creator="Garmin Connect" version="1.1" xsi:schemaLocation="http://www.topografix.com/GPX/1/1 http://www.topografix.com/GPX/11.xsd">
  <extensions>
<distance>6653.04</distance>
<average_hr>157.0</average_hr>
<average_speed>3.078000068664551</average_speed>
<start_time>2026-09-15T00:54:07+00:00</start_time>
<end_time>2026-09-15T01:30:08.418000+00:00</end_time>
<moving_time>2160.132</moving_time>
<elapsed_time>2161.418</elapsed_time>
</extensions>
<metadata>
    <link href="connect.garmin.com">
      <text>Garmin Connect</text>
    </link>
    <time>2026-09-15T00:54:07.000Z</time>
  </metadata>
  <trk>
    <name>浦东新区 - 乳酸阈值</name>
    <type>running</type>
    <trkseg/>
  </trk>
</gpx>
